*******************************************************************************
Ephemeris / WWW_USER Tue Mar 27 20:31:39 2018 Pasadena, USA      / Horizons    
*******************************************************************************
Target body name: Hydra (903)                     {source: plu055l_merged}
Center body name: Solar System Barycenter (0)     {source: DE431mx}
Center-site name: BODY CENTER
*******************************************************************************
Start time      : A.D. 2000-Jan-01 00:00:00.0000 TDB
Stop  time      : A.D. 2010-Jan-01 00:00:00.0000 TDB
Step-size       : 7200 minutes
*******************************************************************************
Center geodetic : 0.00000000,0.00000000,0.0000000 {E-lon(deg),Lat(deg),Alt(km)}
Center cylindric: 0.00000000,0.00000000,0.0000000 {E-lon(deg),Dxy(km),Dz(km)}
Center radii    : (undefined)                                                  
Output units    : AU-D                                                         
Output type     : GEOMETRIC cartesian states
Output format   : 2 (position and velocity)
Reference frame : ICRF/J2000.0                                                 
Coordinate systm: Ecliptic and Mean Equinox of Reference Epoch                 
*******************************************************************************
JDTDB
   X     Y     Z
   VX    VY    VZ
*******************************************************************************
$$SOE
2454274.500000000 = A.D. 2007-Jun-23 00:00:00.0000 TDB 
  -1.325390276431189E+00 -3.104939151963034E+01  3.706071953552364E+00
   3.218881906639913E-03 -6.645652457825463E-04 -8.062373942679873E-04
2454279.500000000 = A.D. 2007-Jun-28 00:00:00.0000 TDB 
  -1.309219341596597E+00 -3.105270444054498E+01  3.701918614631121E+00
   3.244972630534038E-03 -6.667961454634439E-04 -8.572135400228146E-04
2454284.500000000 = A.D. 2007-Jul-03 00:00:00.0000 TDB 
  -1.292997777756498E+00 -3.105611430765679E+01  3.697510762953999E+00
   3.237918441528160E-03 -7.008153933177776E-04 -9.019082543888431E-04
2454289.500000000 = A.D. 2007-Jul-08 00:00:00.0000 TDB 
  -1.276888829255193E+00 -3.105972748958048E+01  3.692959551561389E+00
   3.202408279065641E-03 -7.433208651260354E-04 -9.111595477484839E-04
2454294.500000000 = A.D. 2007-Jul-13 00:00:00.0000 TDB 
  -1.260981458579179E+00 -3.106351337702909E+01  3.688467126746950E+00
   3.161916423525732E-03 -7.658943524110632E-04 -8.799624509071757E-04
2454299.500000000 = A.D. 2007-Jul-18 00:00:00.0000 TDB 
  -1.245234198212553E+00 -3.106732694891515E+01  3.684193923258570E+00
   3.141906737862050E-03 -7.538175296916336E-04 -8.286522297213439E-04
2454304.500000000 = A.D. 2007-Jul-23 00:00:00.0000 TDB 
  -1.229506382536242E+00 -3.107100386240525E+01  3.680160371212515E+00
   3.154754588212935E-03 -7.139642345982720E-04 -7.895333040402070E-04
2454309.500000000 = A.D. 2007-Jul-28 00:00:00.0000 TDB 
  -1.213644691400672E+00 -3.107446001102208E+01  3.676236831205095E+00
   3.192562142197653E-03 -6.702335626781083E-04 -7.872141744770186E-04
2454314.500000000 = A.D. 2007-Aug-02 00:00:00.0000 TDB 
  -1.197578821803178E+00 -3.107774592707602E+01  3.672221355330589E+00
   3.231751697907875E-03 -6.495638422370374E-04 -8.241574549812389E-04
2454319.500000000 = A.D. 2007-Aug-07 00:00:00.0000 TDB 
  -1.181368325521749E+00 -3.108101745819067E+01  3.667967296013463E+00
   3.246821902306676E-03 -6.648592795425508E-04 -8.770671344847044E-04
2454324.500000000 = A.D. 2007-Aug-12 00:00:00.0000 TDB 
  -1.165168063662665E+00 -3.108443756551046E+01  3.663480831291407E+00
   3.227871968911125E-03 -7.053668857564755E-04 -9.116862628923560E-04
2454329.500000000 = A.D. 2007-Aug-17 00:00:00.0000 TDB 
  -1.149125663789286E+00 -3.108806655766774E+01  3.658919872551162E+00
   3.187471778408616E-03 -7.435139554047165E-04 -9.055680999717653E-04
2454334.500000000 = A.D. 2007-Aug-22 00:00:00.0000 TDB 
  -1.133284958827888E+00 -3.109182517678737E+01  3.654486751677240E+00
   3.151914437889734E-03 -7.540973721268522E-04 -8.636932520888164E-04
2454339.500000000 = A.D. 2007-Aug-27 00:00:00.0000 TDB 
  -1.117561530528446E+00 -3.109554876999771E+01  3.650299407630480E+00
   3.143184620017635E-03 -7.301176988896791E-04 -8.127586288184150E-04
2454344.500000000 = A.D. 2007-Sep-01 00:00:00.0000 TDB 
  -1.101798401423298E+00 -3.109909199418222E+01  3.646319856504106E+00
   3.166836898225382E-03 -6.856853027983064E-04 -7.849031327803396E-04
2454349.500000000 = A.D. 2007-Sep-06 00:00:00.0000 TDB 
  -1.085862878619561E+00 -3.110241708831694E+01  3.642379805283493E+00
   3.208195930862409E-03 -6.477430390138903E-04 -7.979634424314580E-04
2454354.500000000 = A.D. 2007-Sep-11 00:00:00.0000 TDB 
  -1.069729467047888E+00 -3.110561987073055E+01  3.638281964915785E+00
   3.241345549605146E-03 -6.396270508593340E-04 -8.446002991261907E-04
2454359.500000000 = A.D. 2007-Sep-16 00:00:00.0000 TDB 
  -1.053500624390249E+00 -3.110887232173627E+01  3.633927678383567E+00
   3.244250969654198E-03 -6.663672836810683E-04 -8.948995032621595E-04
2454364.500000000 = A.D. 2007-Sep-21 00:00:00.0000 TDB 
  -1.037341783415214E+00 -3.111231065330234E+01  3.629384106523930E+00
   3.215147875631287E-03 -7.092989019238337E-04 -9.159302078442980E-04
2454369.500000000 = A.D. 2007-Sep-26 00:00:00.0000 TDB 
  -1.021371978100855E+00 -3.111594448513243E+01  3.624841059725530E+00
   3.173113399019932E-03 -7.397978402210800E-04 -8.947690498511496E-04
2454374.500000000 = A.D. 2007-Oct-01 00:00:00.0000 TDB 
  -1.005586880792482E+00 -3.111965350412761E+01  3.620483700393398E+00
   3.145183175616933E-03 -7.376599944471424E-04 -8.456711642179974E-04
2454379.500000000 = A.D. 2007-Oct-06 00:00:00.0000 TDB 
  -9.898663443240540E-01 -3.112326762830220E+01  3.616377180433519E+00
   3.148605956121152E-03 -7.039327759879258E-04 -8.000532439771754E-04
2454384.500000000 = A.D. 2007-Oct-11 00:00:00.0000 TDB 
  -9.740502349718556E-01 -3.112667236438443E+01  3.612428710163421E+00
   3.181315083266178E-03 -6.584936764138952E-04 -7.861845591409062E-04
2454389.500000000 = A.D. 2007-Oct-16 00:00:00.0000 TDB 
  -9.580374561327525E-01 -3.112987939881491E+01  3.608445220453053E+00
   3.223093399321272E-03 -6.291237180234573E-04 -8.136888525648330E-04
2454394.500000000 = A.D. 2007-Oct-21 00:00:00.0000 TDB 
  -9.418504385224450E-01 -3.113302224434241E+01  3.604251571037317E+00
   3.246956675050578E-03 -6.341805501940272E-04 -8.654435363815163E-04
2454399.500000000 = A.D. 2007-Oct-26 00:00:00.0000 TDB 
  -9.256259335966717E-01 -3.113627396436242E+01  3.599806395845821E+00
   3.237191799885561E-03 -6.698557061620193E-04 -9.082387904450172E-04
2454404.500000000 = A.D. 2007-Oct-31 00:00:00.0000 TDB 
  -9.095251167128413E-01 -3.113973190246332E+01  3.595231769840482E+00
   3.200227701489222E-03 -7.117703066442296E-04 -9.141179030399318E-04
2454409.500000000 = A.D. 2007-Nov-05 00:00:00.0000 TDB 
  -8.936278410372910E-01 -3.114335453054038E+01  3.590731942713524E+00
   3.160442073190000E-03 -7.319130196627808E-04 -8.802460157979932E-04
2454414.500000000 = A.D. 2007-Nov-10 00:00:00.0000 TDB 
  -8.778823114366212E-01 -3.114699109606567E+01  3.586459115830870E+00
   3.142852202828857E-03 -7.171045422625712E-04 -8.286660021856641E-04
2454419.500000000 = A.D. 2007-Nov-15 00:00:00.0000 TDB 
  -8.621430047518271E-01 -3.115048033001815E+01  3.582420628597673E+00
   3.158258033919556E-03 -6.759804038745175E-04 -7.918431645597460E-04
2454424.500000000 = A.D. 2007-Nov-20 00:00:00.0000 TDB 
  -8.462601988647956E-01 -3.115374799293999E+01  3.578477145824086E+00
   3.197142262965044E-03 -6.332159924050541E-04 -7.928988872287954E-04
2454429.500000000 = A.D. 2007-Nov-25 00:00:00.0000 TDB 
  -8.301733989971748E-01 -3.115685499573461E+01  3.574426653558747E+00
   3.235209166415413E-03 -6.151680474662470E-04 -8.321591477673132E-04
2454434.500000000 = A.D. 2007-Nov-30 00:00:00.0000 TDB 
  -8.139518905263069E-01 -3.115996150508925E+01  3.570131992712513E+00
   3.247661850838745E-03 -6.330616796030346E-04 -8.848306172586970E-04
2454439.500000000 = A.D. 2007-Dec-05 00:00:00.0000 TDB 
  -7.977540777837678E-01 -3.116322596461321E+01  3.565612526238655E+00
   3.226246672474192E-03 -6.745051388113184E-04 -9.168101162177148E-04
2454444.500000000 = A.D. 2007-Dec-10 00:00:00.0000 TDB 
  -7.817224908956899E-01 -3.116669811529755E+01  3.561034485910189E+00
   3.185127365313049E-03 -7.112957366408303E-04 -9.073264147835765E-04
2454449.500000000 = A.D. 2007-Dec-15 00:00:00.0000 TDB 
  -7.658905908777605E-01 -3.117028893166285E+01  3.556598348519612E+00
   3.151039719617453E-03 -7.191208164053345E-04 -8.635338580801892E-04
2454454.500000000 = A.D. 2007-Dec-20 00:00:00.0000 TDB 
  -7.501649233002080E-01 -3.117383103388623E+01  3.552411182246433E+00
   3.145010423020329E-03 -6.927344439377898E-04 -8.133194690724907E-04
2454459.500000000 = A.D. 2007-Dec-25 00:00:00.0000 TDB 
  -7.343866716193753E-01 -3.117718513093260E+01  3.548422212161087E+00
   3.170851145366652E-03 -6.477946063516556E-04 -7.883606938948229E-04
2454464.500000000 = A.D. 2007-Dec-30 00:00:00.0000 TDB 
  -7.184294950140860E-01 -3.118032431945246E+01  3.544456480301955E+00
   3.212483079584352E-03 -6.115645383289979E-04 -8.046404436724308E-04
2454469.500000000 = A.D. 2008-Jan-04 00:00:00.0000 TDB 
  -7.022785220038195E-01 -3.118335330486545E+01  3.540320382033822E+00
   3.243801167560994E-03 -6.063096154633761E-04 -8.527876916756562E-04
2454474.500000000 = A.D. 2008-Jan-09 00:00:00.0000 TDB 
  -6.860442700625001E-01 -3.118644521493896E+01  3.535927015091273E+00
   3.243924806058074E-03 -6.352226650538475E-04 -9.018929864501351E-04
2454479.500000000 = A.D. 2008-Jan-14 00:00:00.0000 TDB 
  -6.698925639045864E-01 -3.118972897135654E+01  3.531355882590745E+00
   3.212874630996391E-03 -6.782393890129691E-04 -9.197902171979829E-04
